<p>轨道计算：先计算出椭圆轨道的参数，再映射到实际轨道当中</p>
<h3 id="数据"><a href="#数据" class="headerlink" title="数据"></a>数据</h3><p>Orbital elements:<br>    C/2019 Y4 (ATLAS)<br>Epoch 2020 May 31.0 TT = JDT 2459000.5<br>T 2020 May 30.99149 TT                                  Bell<br>q   0.2522871            (2000.0)            P               Q<br>z  +0.0052736      Peri.  177.54315     +0.48067371     +0.62763038<br> +/-0.0005749      Node   120.47328     -0.81617007     +0.57558163<br>e   0.9986695      Incl.   45.27974     -0.32065433     -0.52420025<br>From 171 observations 2019 Dec. 28-2020 Jan. 9, mean residual 0”.4.    </p>
<p>e (eccentricity)                : 0.9991890<br>q (perihelion distance)         : 0.2529910<br>i (inclination)                 : 45.39050<br>Ω (Longitude of ascending node) : 120.57800<br>ω (Argument of perihelion)      : 177.39850<br>L (Longitude of perihelion)     : 118.75041<br>B (Latitude of perihelion)      : 1.85172<br>T (Time of perihelion passage)  : 2459000.54440<br>P (Orbital period in years)     : 5509.68<br>Epoch                           : 2020 Feb 27<br>Family/Group:                   : Nearly isotropic</p>
<p>02 January 2020 00:00 UTC</p>
<table class="objectdata" cellspacing="0" style="width:100%;margin-left:0px; margin-bottom:10px;">
                                <tr>
                                    <th class="left" style="padding-left:0px;">Element</th>
                                    <th>Symbol</th>
                                    <th class="right">Value</th>
                                </tr>
                                <tr class="data even">
                                    <td class="left">Orbit eccentricity</td>
                                    <td>e</td>
                                    <td class="right value">0.99871621</td>
                                </tr>
                                <tr class="data odd">
                                    <td class="left">Orbit inclination</td>
                                    <td>i</td>
                                    <td class="right value">45.31898912&deg;</td>
                                </tr>
                                <tr class="data even">
                                    <td class="left">Perihelion distance</td>
                                    <td>q</td>
                                    <td class="right value">0.25306404 AU<br>37,857,841 km</td>
                                </tr>
                                <tr class="data odd">
                                    <td class="left">Aphelion distance</td>
                                    <td>Q</td>
                                    <td class="right value">
                                                                            393.99356831 AU<br>58,940,599,007 km
                                                                        </td>
                                </tr>
                                <tr class="data even">
                                    <td class="left">Semi-major axis</td>
                                    <td>a</td>
                                    <td class="right value">
                                                                                197.12331617 AU<br>29,489,228,424 km
                                                                            </td>
                                </tr>
                                <tr class="data odd">
                                    <td class="left">Orbital period</td>
                                    <td>period</td>
                                    <td class="right value">
                                                                        2,767.6800 years<br>1,010,893.5413 days
                                                                        </td>
                                </tr>
                                <tr class="data even">
                                    <td class="left">Date of perihelion transit</td>
                                    <td>Tp</td>
                                    <td class="right value">2020-May-31 02:27:30<br>2,459,000.6024 JD</td>
                                </tr>
                                                                <tr class="data odd">
                                    <td class="left">Argument of perihelion</td>
                                    <td>peri</td>
                                    <td class="right value">177.46987924671&deg;</td>
                                </tr>
                                <tr class="data even">
                                    <td class="left">Longitude of the ascending node</td>
                                    <td>node</td>
                                    <td class="right value">120.51143626815&deg;</td>
                                </tr>
                                <tr class="data odd">
                                    <td class="left">Mean anomaly</td>
                                    <td>M</td>
                                    <td class="right value">359.94690155178&deg;</td>
                                </tr>
                                <tr class="data even">
                                    <td class="left">Mean motion</td>
                                    <td>n</td>
                                    <td class="right value">0.00035612&deg;/day</td>
                                </tr>
                            </table>


<h3 id="轨道根数："><a href="#轨道根数：" class="headerlink" title="轨道根数："></a>轨道根数：</h3><p>– semimajor axis a,<br>– eccentricity e,<br>– inclination i (or ι),<br>– longitude of the ascending node Ω,<br>– argument of the perihelion ω,<br>– time of the perihelion τ.<br>(或者true anomaly或者mean anomaly)</p>
<h3 id="作图"><a href="#作图" class="headerlink" title="作图"></a>作图</h3><p>三维图：<br><a href="https://matplotlib.org/tutorials/toolkits/mplot3d.html" target="_blank" rel="noopener">mplot3d</a></p>
<figure class="highlight python"><table><tr><td class="gutter"><pre><span class="line">1</span><br><span class="line">2</span><br><span class="line">3</span><br><span class="line">4</span><br><span class="line">5</span><br><span class="line">6</span><br><span class="line">7</span><br><span class="line">8</span><br><span class="line">9</span><br><span class="line">10</span><br><span class="line">11</span><br></pre></td><td class="code"><pre><span class="line"><span class="keyword">from</span> mpl_toolkits.mplot3d <span class="keyword">import</span> Axes3D</span><br><span class="line"><span class="keyword">import</span> matplotlib.pyplot <span class="keyword">as</span> plt</span><br><span class="line"><span class="keyword">import</span> numpy <span class="keyword">as</span> np</span><br><span class="line">ax1 = plt.axes(projection=<span class="string">"3d"</span>)</span><br><span class="line"></span><br><span class="line">ax1.set_xlim3d(-lim,lim)</span><br><span class="line">ax1.set_ylim3d(-lim,lim)</span><br><span class="line">ax1.set_zlim3d(-lim,lim)</span><br><span class="line"></span><br><span class="line">ax1.plot3D(x,y,z)</span><br><span class="line">plt.show()</span><br></pre></td></tr></table></figure>

<p>在jupyter notebook上：</p>
<figure class="highlight python"><table><tr><td class="gutter"><pre><span class="line">1</span><br><span class="line">2</span><br><span class="line">3</span><br></pre></td><td class="code"><pre><span class="line">%matplotlib notebook</span><br><span class="line">ax1.mouse_init() <span class="comment">#使用鼠标操控</span></span><br><span class="line">ax1.view_init(elev=number, azim=number) <span class="comment">#调整视角</span></span><br></pre></td></tr></table></figure>



